spkid,ma,full_name,a,e,i,om,w,q,ad,per_y,data_arc,condition_code,n_obs_used,n_del_obs_used,n_dop_obs_used,H
3743119,14.36884661381181,"       (2016 CW137)",2.404732989093113,.6545312528656856,37.68187922461438,133.0554452680142,316.3432317443099,.8307600929345528,3.978705885251674,3.72913833517292,67,5,34,,,19.3
3743120,320.3438191473118,"       (2016 CX137)",2.240654865495933,.7400249299946566,16.70171711507462,100.9680371040557,167.5111533836561,.5825144055151185,3.898795325476748,3.35405864091545,65,5,55,,,19.7
3743121,19.53674636974129,"       (2016 CZ137)",1.34498134681763,.4891104814382973,11.41198818825035,324.4968543210028,86.72454040213064,.6871368727501295,2.002825820885131,1.55984912687177,19,7,58,,,24.9
3743123,181.2015013135031,"       (2016 CA138)",1.001242747345967,.04745863665059223,27.71988174490147,329.0073299306825,328.1624220508554,.9537251316006337,1.0487603630913,1.0018836218629,22,7,83,,,23.4
3743605,236.0331236094876,"       (2016 CU193)",1.472594303544339,.3562159041318243,49.889871608021,322.3978131820618,323.0941124829355,.9480327922879184,1.99715581480076,1.7870342512265,53,6,71,,,19.9
3743607,290.3139872374184,"       (2016 CV193)",1.375933711976718,.2776057696300882,9.384796580513012,133.3459629184552,87.07093956577151,.993966574903437,1.757900849049999,1.61400349017364,48,5,52,,,22.6
3743606,8.321366503104226,"       (2016 CW193)",2.484564709668434,.6666717878027052,6.514151671380012,185.2328265230214,234.9435513455625,.8281755127622699,4.140953906574598,3.91636959912736,23,7,77,,,21.7
3743602,314.371353168581,"       (2016 CZ193)",1.604063349628673,.4949860752172633,4.395866400544784,324.2293228813157,256.6840870388681,.8100743277961193,2.398052371461227,2.03161062861331,22,7,29,,,23.8
3743604,2.413438422306099,"       (2016 CA194)",1.736233787986674,.415991090754511,5.04490433222115,145.4723425954578,349.0968057405087,1.013976000717261,2.458491575256087,2.28781291651048,6,8,22,,,27.2
3743613,48.54717803958734,"       (2016 CB194)",2.506010093531044,.6366666470757283,9.803126900349012,48.95512419780114,324.8701466305281,.9105170497447019,4.101503137317386,3.96718475223265,4410,2,34,,,17.6
3743609,.446650939030565,"       (2016 CE194)",1.946417141944069,.5146374213684264,1.845238972546481,138.6281779716835,324.3149378360915,.9447180431066712,2.948116240781468,2.7155767603653,17,7,77,,,26.1
3743615,318.4119880209981,"       (2016 CM194)",1.466184067486086,.4248938164748358,8.27632523025245,323.6799347884696,239.4188217389529,.8432115233973246,2.089156611574846,1.77537845845219,1,6,116,,,27.7
3743616,335.0556231118373,"       (2016 CN194)",1.55364367529337,.3678282965226811,10.79307633254209,140.9979071948095,23.24442473391476,.9821695688069721,2.125117781779768,1.93657951848621,4,7,42,,,27.0
3743740,33.27192951124585,"       (2016 CK195)",1.333206027382662,.3038524489362119,5.233044314561267,64.03770813020182,355.6754668042682,.9281081110259222,1.738303943739403,1.53940929636803,16,6,16,,,23.2
3743746,10.49912237174749,"       (2016 CL195)",1.889582868154203,.6259779445371664,.944481349393704,334.3533072799952,78.4555418375964,.7067456683143916,3.072420067994015,2.59750933145014,22,7,40,,,23.8
3743744,258.1324184889513,"       (2016 CM195)",1.204390307912341,.2379798170288226,19.52171730619033,324.6458649150175,287.6620321506978,.9177697228040748,1.491010893020607,1.32177970774391,21,7,34,,,23.5
3743745,295.5558140200703,"       (2016 CP195)",1.17341015123019,.1959296218281464,24.55917360241829,324.0104397965704,236.6102415544445,.9435043440503507,1.403315958410029,1.27110949767852,4,7,30,,,26.5
3743742,295.9954122197225,"       (2016 CQ195)",2.16698810025668,.7061310547210318,28.39036591005894,333.4693395687539,324.80613182915,.6368105074545055,3.697165693058854,3.1900169593776,70,5,108,,,18.2
3743894,148.9476878720893,"       (2016 CL246)",1.435755834079515,.4458708352660498,48.7973122931404,310.7055902384794,7.335841891488648,.7955941811003775,2.075917487058653,1.72039862500307,17,7,21,,,19.4
3743896,39.44718128613747,"       (2016 CM246)",1.945963818617573,.776677812798503,6.28531256059174,325.9567217640717,43.8422826875912,.4345768961886536,3.457350741046493,2.71462812305859,17,8,26,,,20.5
3743897,233.1805808080317,"       (2016 CO246)",1.001743276372871,.1238410204208109,6.45185666098402,137.3083116223593,117.9107345940955,.8776863668271686,1.125800185918574,1.0026349898546,27,5,21,,,26.0
3743899,326.6525715511139,"       (2016 CQ246)",1.769321151656739,.6125263563311686,4.680153079997379,340.9636795474397,243.159121110927,.6855653134527697,2.853076989860708,2.35352169671872,2,7,25,,,25.3
3743901,21.23057371832296,"       (2016 CT246)",1.204004625828371,.1832450560438466,36.99204385236127,319.6100336661817,120.3449082639223,.9833767306914005,1.424632520965341,1.3211448480131,21,7,56,,,22.9
3743902,41.0414003411225,"       (2016 CV246)",1.051098861281995,.1509409134363801,7.088946524931064,337.74937066,79.33958234000383,.8924450390481515,1.209752683515838,1.07763962141666,19,6,69,,,25.4
3744153,50.7879117015224,"       (2016 CO247)",1.420012959597719,.5133892427961491,18.347340304362,292.3016299911536,90.2180355551707,.6909935815091275,2.149032337686311,1.6921804145478,31,6,35,,,20.4
3744154,43.19164978351647,"       (2016 CQ247)",1.283242801289548,.5970834277388429,8.924049956433585,199.6860563085008,172.2955459379749,.5170397908743898,2.049445811704707,1.45368884289522,18,7,28,,,21.8
3744155,68.22803959405452,"       (2016 CR247)",1.1076815260443,.09162550490359125,14.17289326655157,359.3185546333187,58.00211403666872,1.006189646948111,1.209173405140489,1.1658175025686,71,4,37,,,21.6
3744158,352.367007429047,"       (2016 CS247)",1.361321991324339,.2746743830597016,1.597532485382266,335.1999819310048,147.4325031160363,.9874017132117218,1.735242269436956,1.58836201580251,46,6,126,,,25.5
3744319,309.7180738160217,"       (2016 CW247)",1.712281444213548,.5707079201722411,10.55742111012717,310.652658174288,287.571205266953,.7350688624369128,2.689494025990184,2.24063403061764,16,7,22,,,22.3
3744320,67.77598432805765,"       (2016 CZ247)",1.034037004526089,.3747010814627543,8.022699817891036,325.1110771208328,70.0461059039378,.6465822206576564,1.421491788394521,1.05150737633229,2,8,17,,,26.9
3744321,13.52012659306669,"       (2016 CA248)",1.803677748259782,.4765554845708288,2.677657914223371,148.0516403618993,317.5106541384035,.9441252249282202,2.663230271591344,2.42240427068787,2,8,18,,,27.8
3744323,24.40471365580243,"       (2016 CB248)",1.130251675468589,.365820483062607,7.698905538674384,145.7812467449694,267.1242202966972,.7167824615663485,1.543720889370829,1.20163049549382,12,7,44,,,26.7
3744324,17.4412749032553,"       (2016 CD248)",1.865975817184908,.5729212231427957,13.46780467759489,359.1504552515835,55.33347551566172,.7969186696484526,2.935032964721363,2.54898464223366,16,7,23,,,22.2
3744325,22.3413549420403,"       (2016 CE248)",1.743026879953964,.4508931133375896,33.87890391674535,142.3783578252636,309.2395936650924,.9571080634204163,2.528945696487512,2.30125279593674,17,8,14,,,23.4
3744558,306.7140126154931,"       (2016 CK248)",1.378693662424524,.3773477109227021,2.505527265640277,318.715066932253,255.6833510283358,.8584467648449932,1.898940560004055,1.61886215745257,4,7,37,,,26.8
3744559,13.957583154189,"       (2016 CM248)",1.467432634536901,.3711111833646941,17.59806637614904,330.423081766563,113.0228516331825,.9228519730259412,2.012013296047861,1.7776467455102,28,6,48,,,23.2
3744561,266.2598183941334,"       (2016 CN248)",1.012134282208456,.4192477747180988,3.15628717686735,139.4921901291994,116.8952885608792,.5877992366766608,1.436469327740252,1.01827575884485,4,6,20,,,27.3
3744785,286.180804679545,"       (2016 CL264)",1.648114954393026,.5747981059201919,34.1160318219284,138.578919236325,100.2857548097951,.7007816002691711,2.59544830851688,2.11587229651328,44,6,38,,,19.1
3745515,15.96868971291996,"       (2016 CW264)",2.020114620838454,.7649143592076981,5.735613712380096,141.7448683912629,257.817357407208,.4748999401137059,3.565329301563202,2.87125801245707,1,8,23,,,29.8
3744692,354.0725770813705,"       (2016 DG)",1.557435723500586,.3714124178070862,9.652696918869493,145.9367396360994,334.257882267918,.978984755856105,2.135886691145068,1.94367388846881,2,7,30,,,27.7
3744694,346.1648874227096,"       (2016 DH)",1.033032216125604,.02235959660988276,8.206836732855127,146.2156847496359,340.8749768175187,1.009934032488022,1.056130399763186,1.04997510180403,16,6,21,,,27.5
3744695,48.7921282376447,"       (2016 DJ)",1.024349680017802,.1615752500465042,4.322238797236497,337.0270527477609,71.04513871078798,.8588401243338694,1.189859235701735,1.03676554653658,51,4,70,,,25.6
3744792,222.9061092014621,"       (2016 DP)",1.022689492518021,.4772207294369915,13.31940425674366,54.43848614613071,254.0000951630587,.5346408669110244,1.510738118125018,1.03424610277904,43,5,147,,,20.2
3744802,354.4787514081196,"       (2016 DB1)",1.188564651150933,.1890764541295124,12.90346305708129,337.6905465999983,137.884832027082,.9638350614076335,1.413294240894232,1.29581325193371,8,6,85,,,26.5
3744813,2.484456676296108,"       (2016 DE1)",1.661678359460378,.6537320285870146,.4525853226199079,100.2980714945102,322.0928359825071,.5753859946712025,2.747970724249553,2.14204528588346,6,7,88,,,25.3
3744814,30.0818912702009,"       (2016 DF1)",1.518610538192201,.6634007893185432,1.582093478070673,132.4504864711091,276.074431252521,.5111631084880373,2.526057967896365,1.87144822347154,6,8,64,,,24.3
3744819,.5853123364196404,"       (2016 DK1)",1.35689341791726,.3288339431974694,.7625391549372781,336.4845937742884,125.1562342938325,.9107008048048358,1.803086031029685,1.58061757261176,18,7,51,,,27.4
3744820,341.0979287123644,"       (2016 DL1)",2.242210470037243,.5630125632210249,1.505144807959889,337.7913011190788,203.5706608051175,.9798178060205557,3.504603134053931,3.35755214704912,5,6,107,,,26.8
